IRIDIUM 63              
1 25286U 98021B   25068.22007091  .00000691  00000+0  22947-3 0  9997
2 25286  86.3976 124.0826 0002131  97.0917 263.0523 14.36412136409765
IRIDIUM 69              
1 25319U 98026A   25067.70516220  .00000780  00000+0  23756-3 0  9998
2 25319  86.4002 137.8840 0002925  45.0810 315.0626 14.40804421408596
IRIDIUM 71              
1 25320U 98026B   25068.55901862  .00000761  00000+0  23059-3 0  9999
2 25320  86.3987 132.2355 0004150  75.8063 284.3597 14.41015616409498
IRIDIUM 73              
1 25344U 98032C   25068.52343074  .00001149  00000+0  28272-3 0  9997
2 25344  86.4353  89.1573 0002171  74.8899 285.2546 14.51484471416404
IRIDIUM 82              
1 25467U 98051A   25068.18076898  .00031147  00000+0  10652-2 0  9996
2 25467  86.3745 158.6663 0094541 315.1546  44.2086 15.25848482408678
